STARLINK-2644
1 18442C 21040Q   21326.17725780  .00003728  00000-0  24978-3 0  3267
2 18442  53.0551  22.9321 0001525  55.4736   1.1823 15.06394720    18
